0 FALCON 9 DEB
1 39276U 13055L   13281.50706216  .01625836  00000-0  12059+0 0   159
2 39276 080.9435 306.4159 0596848 140.8365 225.3117 14.16581217  1304
0 FALCON 9 DEB
1 39276U 13055L   13282.28308354  .01827756  00000-0  12497+0 0   168
2 39276 080.9314 305.6550 0594288 139.0827 225.9905 14.19194439  1417
0 FALCON 9 DEB
1 39276U 13055L   13282.49447732  .03057953  00000-0  21825+0 0   177
2 39276 080.9331 305.4028 0578960 138.1572 227.2002 14.20876699  1443
0 FALCON 9 DEB
1 39276U 13055L   13282.77586799  .02768012  00000-0  19440+0 0   180
2 39276 080.9370 305.1098 0573889 137.5524 226.9726 14.22177996  1484
0 FALCON 9 DEB
1 39276U 13055L   13283.05718278  .02528106  00000-0  17822+0 0   192
2 39276 080.9370 304.8152 0568485 136.9387 227.5606 14.23340180  1524
0 FALCON 9 DEB
1 39276U 13055L   13283.26804578  .02418164  00000-0  17121+0 0   200
2 39276 080.9393 304.5957 0564270 136.7349 227.7793 14.24132814  1559
0 FALCON 9 DEB
1 39276U 13055L   13283.54899228  .02480972  00000-0  17682+0 0   216
2 39276 080.9433 304.3047 0556662 135.8924 228.6444 14.25351261  1594
0 FALCON 9 DEB
1 39276U 13055L   13284.46023361  .01640319  00000-0  11214+0 0   223
2 39276 080.9271 303.3617 0552372 133.0897 227.3229 14.27603415  1724
0 FALCON 9 DEB
1 39276U 13055M   13285.30139962  .01677570  00000-0  11256+0 0   250
2 39276 080.9169 302.4819 0541917 131.2284 233.6015 14.30125745  1842
0 FALCON 9 DEB
1 39276U 13055M   13285.79090872  .01681894  00000-0  11255+0 0   263
2 39276 080.9181 301.9664 0534693 129.6110 235.2131 14.31591928  1916
0 FALCON 9 DEB
1 39276U 13055M   13286.07042304  .01696984  00000-0  11186+0 0   272
2 39276 080.9185 301.6750 0532487 128.9100 236.0310 14.32440559  1959
0 FALCON 9 DEB
1 39276U 13055M   13286.27993958  .01703206  00000-0  11279+0 0   284
2 39276 080.9174 301.4583 0528450 128.4756 236.4909 14.33074748  1981
0 FALCON 9 DEB
1 39276U 13055M   13287.04731226  .01770177  00000-0  11374+0 0   296
2 39276 080.9163 300.6398 0519949 126.4427 238.5136 14.35504399  2090
0 FALCON 9 DEB
1 39276U 13055M   13287.32604661  .01769989  00000-0  11306+0 0   305
2 39276 080.9048 300.3476 0516371 125.8988 239.0651 14.36365077  2139
0 FALCON 9 DEB
1 39276U 13055M   13287.53499051  .01783810  00000-0  11455+0 0   318
2 39276 080.9052 300.1212 0511974 125.1344 239.8524 14.37032103  2165
0 FALCON 9 DEB
1 39276U 13055M   13288.50867946  .04636721  00000-0  27346+0 0   326
2 39276 080.9018 299.0721 0480885 123.8523 248.6248 14.44598274  2309
0 FALCON 9 DEB
1 39276U 13055M   13288.78402414  .04527680  00000-0  25148+0 0   333
2 39276 080.9076 298.7800 0480262 122.3236 242.0622 14.46560827  2344
0 FALCON 9 DEB
1 39276U 13055M   13288.85326979  .03522264  00000-0  20618+0 0   342
2 39276 080.9027 298.6948 0472767 123.8730 241.0051 14.46703093  2358
0 FALCON 9 DEB
1 39276U 13055M   13289.81932567  .04038651  00000-0  22309+0 0   358
2 39276 080.8962 297.6518 0447087 122.0640 242.4833 14.53309795  2492
0 FALCON 9 DEB
1 39276U 13055M   13290.09452452  .04057324  00000-0  21752+0 0   360
2 39276 080.8977 297.3487 0441540 122.2642 242.1562 14.55212830  2538
0 FALCON 9 DEB
1 39276U 13055M   13290.43804892  .04348413  00000-0  22800+0 0   375
2 39276 080.8963 296.9670 0430171 120.5377 243.9040 14.57772477  2581
0 FALCON 9 DEB
1 39276U 13055M   13290.43804892  .04348413  00000-0  22800+0 0   386
2 39276 080.8963 296.9670 0430171 120.5377 243.9040 14.57772477  2581
0 FALCON 9 DEB
1 39276U 13055M   13290.78085177  .04735249  00000-0  26612+0 0   394
2 39276 080.8938 296.5985 0403202 120.7059 243.9835 14.60879121  2638
0 FALCON 9 DEB
1 39276U 13055M   13291.32775846  .06638672  00000-0  32304+0 0   405
2 39276 080.8938 295.9933 0387714 119.0484 247.2196 14.67420976  2719
0 FALCON 9 DEB
1 39276U 13055M   13291.46363238  .06752159  00000-0  32290+0 0   410
2 39276 080.8875 295.8389 0381633 118.7774 245.1662 14.68971069  2737
0 FALCON 9 DEB
1 39276U 13055M   13292.34563186  .08838518  00000-0  37013+0 0   427
2 39276 080.9037 294.7988 0336654 117.4145 245.0620 14.80455357  2860
0 FALCON 9 DEB
1 39276U 13055M   13292.81763702  .10104237  00000-0  37772+0 0   435
2 39276 080.9217 294.2472 0310728 117.3006 246.0320 14.88403530  2932
0 FALCON 9 DEB
1 39276U 13055M   13293.08607974  .11144736  00000-0  37262+0 0   447
2 39276 080.9180 293.9477 0298404 117.8689 245.3870 14.93344504  2977
0 FALCON 9 DEB
1 39276U 13055M   13293.48694594  .13435035  00000-0  41794+0 0   458
2 39276 080.9008 293.4881 0262141 117.2306 245.0609 15.01318504  3035
0 FALCON 9 DEB
1 39276U 13055M   13293.75303727  .16091597  00000-0  44072+0 0   460
2 39276 080.9262 293.2017 0236537 115.6365 247.2053 15.08128627  3076
0 FALCON 9 DEB
1 39276U 13055M   13294.47703230  .16312203  00000-0  35569+0 0   475
2 39276 080.8947 292.2970 0199396 115.8084 223.3690 15.20178413  3189
0 FALCON 9 DEB
1 39276U 13055M   13294.80927768  .20455916  00000-0  34642+0 0   482
2 39276 080.8901 291.8988 0178073 116.6627 245.3034 15.29918409  3232
0 FALCON 9 DEB
1 39276U 13055M   13295.00500710  .24962874  00000-0  34864+0 0   496
2 39276 080.8906 291.6547 0162126 116.4691 245.3323 15.37108463  3261
